0 NUSAT-9 ALICE
1 46828U 20079B   23192.94416401  .00102195  00000-0  85178-3 0  9992
2 46828  97.1298 264.3566 0000520 346.5025  13.6224 15.69774345150432
0 NUSAT-11 CORA
1 46829U 20079C   23193.20063578  .00059576  00000-0  50010-3 0  9997
2 46829  97.1373 265.2261 0001080 319.9399  40.1784 15.69745122150469
0 NUSAT-15 KATHERINE
1 46830U 20079D   23192.75672427  .00116126  00000-0  86760-3 0  9993
2 46830  97.1512 266.6950 0002474 228.2548 131.8505 15.72356953150409
0 NUSAT-14 HEDY
1 46831U 20079E   23192.45240050  .00137679  00000-0  87776-3 0  9998
2 46831  97.1450 266.7692 0003871 251.9996 108.0849 15.75993327150410
0 NUSAT-10 CAROLINE
1 46832U 20079F   23193.16053119  .00074662  00000-0  73599-3 0  9996
2 46832  97.1506 265.6426 0001738 280.0073  80.0991 15.65715514150398
0 NUSAT-13 EMMY
1 46833U 20079G   23193.02555549  .00073876  00000-0  73296-3 0  9996
2 46833  97.1494 265.3159 0001877 312.6426  47.4676 15.65555589150361
0 NUSAT-17 MARY
1 46835U 20079J   23193.16702488  .00081655  00000-0  77646-3 0  9996
2 46835  97.1494 265.2634 0001592 313.9077  46.2053 15.66594009150378
0 NUSAT-18 VERA
1 46836U 20079K   23193.15445199  .00093218  00000-0  78811-3 0  9992
2 46836  97.1492 266.2767 0001580 318.4764  41.6378 15.69455783150439
0 NUSAT-16 LISE
1 46840U 20079P   23193.18813412  .00111202  00000-0  85573-3 0  9994
2 46840  97.1547 266.9407 0001328 237.8773 122.2362 15.71669776150450
0 TIANQI-11
1 46904U 20080A   23191.85087400  .00062042  00000-0  84892-3 0  9999
2 46904  97.5014 330.5577 0005285  82.8420  70.5639 15.57207173149287
0 RISAT-2BR2
1 46905U 20081A   23193.12680692  .00004136  00000-0  33961-3 0  9996
2 46905  36.9001  89.1924 0002053 234.2201 125.8349 14.99159952146560
0 KSM1-C
1 46906U 20081B   23193.07992221  .00004226  00000-0  30655-3 0  9992
2 46906  36.8952  69.2311 0005524 326.3737  33.6654 15.03863909146764
0 KSM1-D
1 46907U 20081C   23192.94725332  .00003937  00000-0  28657-3 0  9992
2 46907  36.8996  70.2998 0007029 348.0608  11.9967 15.03778995146740
0 LEMUR 2 OZARAK
1 46908U 20081D   23192.00866650  .00014526  00000-0  84280-3 0  9999
2 46908  36.9007  62.9893 0007960   8.3983 351.6893 15.11506342146750
0 LEMUR 2 JINDRA
1 46909U 20081E   23192.91895048  .00020720  00000-0  11285-2 0  9990
2 46909  36.9008  52.6747 0007986  24.5182 335.5942 15.13671188146956
0 LEMUR 2 WALLACE
1 46910U 20081F   23192.97621023  .00019180  00000-0  10720-2 0  9999
2 46910  36.9005  54.0475 0007975  22.1023 338.0064 15.12769333146935
0 LEMUR 2 JEREMIAH
1 46911U 20081G   23191.98593340  .00014943  00000-0  86048-3 0  9999
2 46911  36.9043  61.0321 0008690  14.9349 345.1651 15.11763078146784
0 KSM1-A
1 46912U 20081H   23193.00080288  .00004211  00000-0  30552-3 0  9993
2 46912  36.8988  68.8187 0003310  55.0920 305.0133 15.03862798146760
0 R2
1 46913U 20081J   23192.02120263  .00003361  00000-0  24362-3 0  9990
2 46913  36.9036  73.3554 0011113   3.4758 356.6059 15.04046220145955
0 KSM1-B
1 46914U 20081K   23193.08471781  .00004141  00000-0  30120-3 0  9998
2 46914  36.9031  68.8173 0008821  16.4425 343.6602 15.03764869146040
0 CORVUS BC5
1 46931U 20085C   23192.66681878  .00028351  00000-0  63685-3 0  9995
2 46931  97.4891 338.9324 0010502 123.7335 236.4914 15.43267333147049
0 BRO-2
1 46940U 20085M   23193.11359645  .00015837  00000-0  47679-3 0  9990
2 46940  97.4979 336.0366 0010071 144.4695 215.7220 15.34390999146843
0 BRO-3
1 46943U 20085Q   23193.11971842  .00038777  00000-0  76748-3 0  9999
2 46943  97.4691 337.4590 0008603 142.1332 218.0525 15.46951465147087
0 DRAGRACER 2(AUGURY)
1 46955U 20085AC  23192.62193919  .00005864  00000-0  22675-3 0  9999
2 46955  97.4970 331.3968 0012516 170.2927 189.8556 15.26543582146535
0 S6 MICHAEL FREILICH
1 46984U 20086A   23192.72750015 -.00000035  00000-0  11219-3 0  9997
2 46984  66.0385 200.4850 0008106 269.2675  90.7411 12.80930351123226
0 STARLINK-1777
1 47122U 20088A   23192.43388439  .00016772  00000-0  11415-2 0  9990
2 47122  53.0551 346.2471 0000852  93.4069 266.7017 15.06421691145598
0 STARLINK-1785
1 47124U 20088C   23192.95128556  .00019806  00000-0  13435-2 0  9996
2 47124  53.0545 348.9342 0000861  86.2898 273.8189 15.06436899145606
0 STARLINK-1812
1 47126U 20088E   23192.72509042  .00020367  00000-0  13826-2 0  9994
2 47126  53.0548 344.9402 0001097  75.0595 285.0515 15.06390290145642
0 STARLINK-1837
1 47128U 20088G   23192.41729246  .00021653  00000-0  14665-2 0  9993
2 47128  53.0544 326.3187 0000439  84.4837 275.6202 15.06439593145879
0 STARLINK-1838
1 47129U 20088H   23193.10932749  .00002768  00000-0  20456-3 0  9997
2 47129  53.0570 333.2149 0001169  79.9823 280.1298 15.06409935145849
0 STARLINK-1843
1 47133U 20088M   23193.10195041 -.00005125  00000-0 -32548-3 0  9995
2 47133  53.0551 333.2436 0001259  95.8989 264.2143 15.06391024145843
0 STARLINK-1844
1 47134U 20088N   23193.14157505  .00003864  00000-0  27804-3 0  9998
2 47134  53.0552 343.0692 0000717  74.7089 285.3979 15.06410508145708
0 STARLINK-1845
1 47135U 20088P   23193.09458070 -.00003686  00000-0 -22860-3 0  9995
2 47135  53.0537 333.2770 0001138  55.1487 304.9609 15.06410800145841
0 STARLINK-1846
1 47136U 20088Q   23192.69558028  .00017913  00000-0  12172-2 0  9995
2 47136  53.0549 345.0725 0001048  93.9543 266.1566 15.06436168145632
0 STARLINK-1849
1 47137U 20088R   23192.87710233  .00018170  00000-0  12339-2 0  9995
2 47137  53.0559 334.2554 0001045  83.4388 276.6720 15.06449331145805
0 STARLINK-1850
1 47138U 20088S   23193.14023212  .00005737  00000-0  40355-3 0  9996
2 47138  53.0569 338.3913 0000999 105.7058 254.4041 15.06418043145772
0 STARLINK-1852
1 47139U 20088T   23193.12455089  .00001995  00000-0  15274-3 0  9990
2 47139  53.0554 348.3449 0000947  83.5245 276.5851 15.06409591145622
0 STARLINK-1854
1 47141U 20088V   23193.11670349 -.00006747  00000-0 -43463-3 0  9993
2 47141  53.0568 333.1765 0000603  99.6924 260.4133 15.06389706145837
0 STARLINK-1856
1 47143U 20088X   23193.09826022 -.00003038  00000-0 -18511-3 0  9999
2 47143  53.0557 333.2597 0001442  89.3171 270.7983 15.06402270145821
0 STARLINK-1857
1 47144U 20088Y   23192.42098106  .00013672  00000-0  93427-3 0  9992
2 47144  53.0549 326.3029 0001054  98.1178 261.9931 15.06428295145820
0 STARLINK-1860
1 47147U 20088AB  23192.71031893 -.00000201  00000-0  53817-5 0  9993
2 47147  53.0557 345.0034 0000899  80.3119 279.7971 15.06398080145593
0 STARLINK-1861
1 47148U 20088AC  23192.61909988  .00017420  00000-0  11843-2 0  9992
2 47148  53.0555 335.4173 0001153  82.9354 277.1766 15.06436336145717
0 STARLINK-1862
1 47149U 20088AD  23193.11208648 -.00002304  00000-0 -13581-3 0  9993
2 47149  53.0554 343.1965 0001203  76.7360 283.3763 15.06406077145654
0 STARLINK-1863
1 47150U 20088AE  23193.10563779  .00007320  00000-0  50960-3 0  9996
2 47150  53.0546 333.2276 0000575  80.5640 279.5414 15.06415211145792
0 STARLINK-1864
1 47151U 20088AF  23192.70663415  .00020325  00000-0  13784-2 0  9992
2 47151  53.0549 345.0172 0000870  74.1104 285.9980 15.06429083145582
0 STARLINK-1866
1 47152U 20088AG  23193.15537273 -.00008132  00000-0 -52756-3 0  9992
2 47152  53.0555 342.9988 0001008  86.3584 273.7520 15.06406881145656
0 STARLINK-1867
1 47153U 20088AH  23192.95500093  .00019751  00000-0  13398-2 0  9995
2 47153  53.0541 349.1495 0001008  82.7253 277.3850 15.06436565145554
0 STARLINK-1868
1 47154U 20088AJ  23192.29769782 -.00000056  00000-0  36513-5 0  9991
2 47154  53.0430 293.5619 0000840  81.4036 278.7079 15.76738167146278
0 STARLINK-1869
1 47155U 20088AK  23192.43296240  .00006566  00000-0  45911-3 0  9993
2 47155  53.0547 356.2513 0000514 117.6286 242.4755 15.06409672145407
0 STARLINK-1871
1 47157U 20088AM  23193.13420355 -.00008305  00000-0 -53934-3 0  9998
2 47157  53.0550 343.1025 0000537 106.4077 253.6971 15.06400414145651
0 STARLINK-1873
1 47158U 20088AN  23192.89184923  .00021252  00000-0  14399-2 0  9994
2 47158  53.0548 334.1867 0001024  80.4480 279.6624 15.06436083145759
0 STARLINK-1876
1 47161U 20088AR  23193.12406082  .00005019  00000-0  35543-3 0  9996
2 47161  53.0553 333.1469 0001070  84.2021 275.9090 15.06414554145799
0 STARLINK-1877
1 47162U 20088AS  23193.11946260 -.00010232  00000-0 -66916-3 0  9996
2 47162  53.0561 343.1646 0001482  84.0045 276.1113 15.06390659145651
0 STARLINK-1878
1 47163U 20088AT  23193.15170225  .00011965  00000-0  82015-3 0  9991
2 47163  53.0547 353.0208 0000800  91.0403 269.0678 15.06428653145517
0 STARLINK-1879
1 47164U 20088AU  23192.67530106  .00020488  00000-0  13886-2 0  9995
2 47164  53.0552 325.1606 0000946  73.6041 286.5052 15.06445723145866
0 STARLINK-1880
1 47165U 20088AV  23193.14526139  .00003318  00000-0  24139-3 0  9997
2 47165  53.0546 343.0550 0001081  78.4102 281.7008 15.06420559145654
0 STARLINK-1884
1 47167U 20088AX  23193.13051961 -.00007904  00000-0 -51246-3 0  9990
2 47167  53.0549 343.1163 0000928  96.1298 263.9797 15.06390657145700
0 STARLINK-1887
1 47170U 20088BA  23193.11578260 -.00008689  00000-0 -56521-3 0  9990
2 47170  53.0551 343.1750 0003370  92.5947 267.5427 15.06388254145692
0 STARLINK-1888
1 47171U 20088BB  23192.86973514  .00023369  00000-0  15803-2 0  9990
2 47171  53.0542 334.2917 0001013  86.1373 273.9731 15.06453159145790
0 STARLINK-1890
1 47173U 20088BD  23193.12682254  .00012003  00000-0  82269-3 0  9994
2 47173  53.0549 343.1332 0000649  75.6542 284.4519 15.06429039145694
0 STARLINK-1891
1 47174U 20088BE  23193.13789036 -.00005670  00000-0 -36215-3 0  9996
2 47174  53.0551 343.0859 0000685  96.2590 263.8477 15.06394926145693
0 STARLINK-1895
1 47175U 20088BF  23192.67161395  .00019250  00000-0  13064-2 0  9990
2 47175  53.0551 325.1753 0000985 101.4640 258.6460 15.06436863145619
0 STARLINK-1907
1 47177U 20088BH  23193.12038278  .00007880  00000-0  54687-3 0  9999
2 47177  53.0547 333.1621 0001108  81.5578 278.5537 15.06431869145836
